{"type": "FeatureCollection", "features": [ {"type": "Feature", "properties": {"norad_id": 30676, "name": "FENGYUN 1C DEB", "group": "fengyun-1c-debris", "lat": 10.449912557771517, "lon": 6.951996547414859, "alt_km": 1313.3334527062925, "timestamp": "2025-12-27T10:28:59.072489+00:00", "meta": {"OBJECT_NAME": "FENGYUN 1C DEB", "OBJECT_ID": "1999-025AQJ", "EPOCH": "2025-12-24T11:46:03.436320", "MEAN_MOTION": 13.73943621, "ECCENTRICITY": 0.04719218, "INCLINATION": 98.2658, "RA_OF_ASC_NODE": 182.8553, "ARG_OF_PERICENTER": 16.4578, "MEAN_ANOMALY": 345.1319, "EPHEMERIS_TYPE": 0, "CLASSIFICATION_TYPE": "U", "NORAD_CAT_ID": 30676, "ELEMENT_SET_NO": 999, "REV_AT_EPOCH": 94085, "BSTAR": 0.00067072182, "MEAN_MOTION_DOT": 1.377e-05, "MEAN_MOTION_DDOT": 0}, "tle": {"line1": "1 30676U 99025AQJ 25358.49031755  .00001377  00000+0  67072-3 0  9996", "line2": "2 30676  98.2658 182.8553 0471921  16.4578 345.1319 13.73943621940850"}}, "geometry": {"type": "Point", "coordinates": [6.951996547414859, 10.449912557771517]}}, {"type": "Feature", "properties": {"norad_id": 30677, "name": "FENGYUN 1C DEB", "group": "fengyun-1c-debris", "lat": 12.811548743248707, "lon": 44.07560287304288, "alt_km": 805.4828312344289, "timestamp": "2025-12-27T10:28:59.072499+00:00", "meta": {"OBJECT_NAME": "FENGYUN 1C DEB", "OBJECT_ID": "1999-025AQK", "EPOCH": "2025-12-26T15:05:17.627136", "MEAN_MOTION": 14.38237575, "ECCENTRICITY": 0.0066718, "INCLINATION": 98.2537, "RA_OF_ASC_NODE": 45.1905, "ARG_OF_PERICENTER": 162.8251, "MEAN_ANOMALY": 348.9123, "EPHEMERIS_TYPE": 0, "CLASSIFICATION_TYPE": "U", "NORAD_CAT_ID": 30677, "ELEMENT_SET_NO": 999, "REV_AT_EPOCH": 98179, "BSTAR": 0.0010963, "MEAN_MOTION_DOT": 3.378e-05, "MEAN_MOTION_DDOT": 0}, "tle": {"line1": "1 30677U 99025AQK 25360.62867624  .00003378  00000+0  10963-2 0  9996", "line2": "2 30677  98.2537  45.1905 0066718 162.8251 348.9123 14.38237575981795"}}, "geometry": {"type": "Point", "coordinates": [44.07560287304288, 12.811548743248707]}}, {"type": "Feature", "properties": {"norad_id": 30678, "name": "FENGYUN 1C DEB", "group": "fengyun-1c-debris", "lat": -26.127766857881433, "lon": 138.1840435321042, "alt_km": 767.9865110100318, "timestamp": "2025-12-27T10:28:59.072509+00:00", "meta": {"OBJECT_NAME": "FENGYUN 1C DEB", "OBJECT_ID": "1999-025AQL", "EPOCH": "2025-12-26T20:10:22.801152", "MEAN_MOTION": 14.24344912, "ECCENTRICITY": 0.007097, "INCLINATION": 99.0798, "RA_OF_ASC_NODE": 322.0669, "ARG_OF_PERICENTER": 189.1054, "MEAN_ANOMALY": 201.3347, "EPHEMERIS_TYPE": 0, "CLASSIFICATION_TYPE": "U", "NORAD_CAT_ID": 30678, "ELEMENT_SET_NO": 999, "REV_AT_EPOCH": 96076, "BSTAR": 0.003224, "MEAN_MOTION_DOT": 7.609e-05, "MEAN_MOTION_DDOT": 0}, "tle": {"line1": "1 30678U 99025AQL 25360.84054168  .00007609  00000+0  32240-2 0  9995", "line2": "2 30678  99.0798 322.0669 0070970 189.1054 201.3347 14.24344912960769"}}, "geometry": {"type": "Point", "coordinates": [138.1840435321042, -26.127766857881433]}}, {"type": "Feature", "properties": {"norad_id": 30679, "name": "FENGYUN 1C DEB", "group": "fengyun-1c-debris", "lat": 41.902568360990976, "lon": -118.4131194533528, "alt_km": 975.1809239591066, "timestamp": "2025-12-27T10:28:59.072526+00:00", "meta": {"OBJECT_NAME": "FENGYUN 1C DEB", "OBJECT_ID": "1999-025AQM", "EPOCH": "2025-12-26T02:39:37.423584", "MEAN_MOTION": 13.79734113, "ECCENTRICITY": 0.01709817, "INCLINATION": 99.3802, "RA_OF_ASC_NODE": 51.743, "ARG_OF_PERICENTER": 43.5099, "MEAN_ANOMALY": 349.331, "EPHEMERIS_TYPE": 0, "CLASSIFICATION_TYPE": "U", "NORAD_CAT_ID": 30679, "ELEMENT_SET_NO": 999, "REV_AT_EPOCH": 94704, "BSTAR": 0.0006088305, "MEAN_MOTION_DOT": 6.59e-06, "MEAN_MOTION_DDOT": 0}, "tle": {"line1": "1 30679U 99025AQM 25360.11084981  .00000659  00000+0  60883-3 0  9995", "line2": "2 30679  99.3802  51.7430 0170981  43.5099 349.3310 13.79734113947040"}}, "geometry": {"type": "Point", "coordinates": [-118.4131194533528, 41.902568360990976]}}, {"type": "Feature", "properties": {"norad_id": 30680, "name": "FENGYUN 1C DEB", "group": "fengyun-1c-debris", "lat": -17.00859812999067, "lon": -139.23344578225436, "alt_km": 945.2417606010322, "timestamp": "2025-12-27T10:28:59.072536+00:00", "meta": {"OBJECT_NAME": "FENGYUN 1C DEB", "OBJECT_ID": "1999-025AQN", "EPOCH": "2025-12-26T08:45:27.729792", "MEAN_MOTION": 13.56229164, "ECCENTRICITY": 0.0335528, "INCLINATION": 99.6307, "RA_OF_ASC_NODE": 42.6944, "ARG_OF_PERICENTER": 134.0073, "MEAN_ANOMALY": 228.9246, "EPHEMERIS_TYPE": 0, "CLASSIFICATION_TYPE": "U", "NORAD_CAT_ID": 30680, "ELEMENT_SET_NO": 999, "REV_AT_EPOCH": 92438, "BSTAR": 0.0044897, "MEAN_MOTION_DOT": 4.494e-05, "MEAN_MOTION_DDOT": 0}, "tle": {"line1": "1 30680U 99025AQN 25360.36490428  .00004494  00000+0  44897-2 0  9998", "line2": "2 30680  99.6307  42.6944 0335528 134.0073 228.9246 13.56229164924384"}}, "geometry": {"type": "Point", "coordinates": [-139.23344578225436, -17.00859812999067]}}, {"type": "Feature", "properties": {"norad_id": 30683, "name": "FENGYUN 1C DEB", "group": "fengyun-1c-debris", "lat": -37.30511552467831, "lon": 20.65574817802288, "alt_km": 972.3660404461962, "timestamp": "2025-12-27T10:28:59.072546+00:00", "meta": {"OBJECT_NAME": "FENGYUN 1C DEB", "OBJECT_ID": "1999-025AQR", "EPOCH": "2025-12-25T13:06:58.710240", "MEAN_MOTION": 14.00429844, "ECCENTRICITY": 0.0138248, "INCLINATION": 99.4266, "RA_OF_ASC_NODE": 11.4351, "ARG_OF_PERICENTER": 189.5826, "MEAN_ANOMALY": 326.7246, "EPHEMERIS_TYPE": 0, "CLASSIFICATION_TYPE": "U", "NORAD_CAT_ID": 30683, "ELEMENT_SET_NO": 999, "REV_AT_EPOCH": 95730, "BSTAR": 0.001076, "MEAN_MOTION_DOT": 1.686e-05, "MEAN_MOTION_DDOT": 0}, "tle": {"line1": "1 30683U 99025AQR 25359.54651285  .00001686  00000+0  10760-2 0  9991", "line2": "2 30683  99.4266  11.4351 0138248 189.5826 326.7246 14.00429844957308"}}, "geometry": {"type": "Point", "coordinates": [20.65574817802288, -37.30511552467831]}}, {"type": "Feature", "properties": {"norad_id": 30684, "name": "FENGYUN 1C DEB", "group": "fengyun-1c-debris", "lat": 21.848272615372284, "lon": -133.5209283631228, "alt_km": 958.3709890030959, "timestamp": "2025-12-27T10:28:59.072557+00:00", "meta": {"OBJECT_NAME": "FENGYUN 1C DEB", "OBJECT_ID": "1999-025AQS", "EPOCH": "2025-12-25T13:46:12.707616", "MEAN_MOTION": 13.66832566, "ECCENTRICITY": 0.023623, "INCLINATION": 99.5309, "RA_OF_ASC_NODE": 40.7807, "ARG_OF_PERICENTER": 236.4133, "MEAN_ANOMALY": 121.4261, "EPHEMERIS_TYPE": 0, "CLASSIFICATION_TYPE": "U", "NORAD_CAT_ID": 30684, "ELEMENT_SET_NO": 999, "REV_AT_EPOCH": 93804, "BSTAR": 0.0010195, "MEAN_MOTION_DOT": 9.85e-06, "MEAN_MOTION_DDOT": 0}, "tle": {"line1": "1 30684U 99025AQS 25359.57375819  .00000985  00000+0  10195-2 0  9994", "line2": "2 30684  99.5309  40.7807 0236230 236.4133 121.4261 13.66832566938049"}}, "geometry": {"type": "Point", "coordinates": [-133.5209283631228, 21.848272615372284]}}, {"type": "Feature", "properties": {"norad_id": 30686, "name": "FENGYUN 1C DEB", "group": "fengyun-1c-debris", "lat": -0.2860610759956798, "lon": -162.94900517934641, "alt_km": 624.0698463121989, "timestamp": "2025-12-27T10:28:59.072567+00:00", "meta": {"OBJECT_NAME": "FENGYUN 1C DEB", "OBJECT_ID": "1999-025AQU", "EPOCH": "2025-12-25T00:31:59.014848", "MEAN_MOTION": 14.73999147, "ECCENTRICITY": 0.01440618, "INCLINATION": 99.0328, "RA_OF_ASC_NODE": 194.3169, "ARG_OF_PERICENTER": 82.5561, "MEAN_ANOMALY": 73.5306, "EPHEMERIS_TYPE": 0, "CLASSIFICATION_TYPE": "U", "NORAD_CAT_ID": 30686, "ELEMENT_SET_NO": 999, "REV_AT_EPOCH": 99782, "BSTAR": 0.00068849051, "MEAN_MOTION_DOT": 5.279e-05, "MEAN_MOTION_DDOT": 0}, "tle": {"line1": "1 30686U 99025AQU 25359.02221082  .00005279  00000+0  68849-3 0  9999", "line2": "2 30686  99.0328 194.3169 0144061  82.5561  73.5306 14.73999147997825"}}, "geometry": {"type": "Point", "coordinates": [-162.94900517934641, -0.2860610759956798]}}, {"type": "Feature", "properties": {"norad_id": 30688, "name": "FENGYUN 1C DEB", "group": "fengyun-1c-debris", "lat": -58.86903339736355, "lon": 89.55662092160627, "alt_km": 779.4692256557446, "timestamp": "2025-12-27T10:28:59.072577+00:00", "meta": {"OBJECT_NAME": "FENGYUN 1C DEB", "OBJECT_ID": "1999-025AQW", "EPOCH": "2025-12-27T04:22:30.573120", "MEAN_MOTION": 14.32819604, "ECCENTRICITY": 0.0016058, "INCLINATION": 98.6998, "RA_OF_ASC_NODE": 74.6156, "ARG_OF_PERICENTER": 270.5024, "MEAN_ANOMALY": 157.4926, "EPHEMERIS_TYPE": 0, "CLASSIFICATION_TYPE": "U", "NORAD_CAT_ID": 30688, "ELEMENT_SET_NO": 999, "REV_AT_EPOCH": 97467, "BSTAR": 0.0018911, "MEAN_MOTION_DOT": 5.123e-05, "MEAN_MOTION_DDOT": 0}, "tle": {"line1": "1 30688U 99025AQW 25361.18229830  .00005123  00000+0  18911-2 0  9992", "line2": "2 30688  98.6998  74.6156 0016058 270.5024 157.4926 14.32819604974670"}}, "geometry": {"type": "Point", "coordinates": [89.55662092160627, -58.86903339736355]}}, {"type": "Feature", "properties": {"norad_id": 30689, "name": "FENGYUN 1C DEB", "group": "fengyun-1c-debris", "lat": -80.43533668143739, "lon": 101.78113059092328, "alt_km": 934.196990074096, "timestamp": "2025-12-27T10:28:59.072587+00:00", "meta": {"OBJECT_NAME": "FENGYUN 1C DEB", "OBJECT_ID": "1999-025AQX", "EPOCH": "2025-12-26T23:18:49.677120", "MEAN_MOTION": 14.11789332, "ECCENTRICITY": 0.0111761, "INCLINATION": 98.7094, "RA_OF_ASC_NODE": 346.7924, "ARG_OF_PERICENTER": 63.2237, "MEAN_ANOMALY": 359.3607, "EPHEMERIS_TYPE": 0, "CLASSIFICATION_TYPE": "U", "NORAD_CAT_ID": 30689, "ELEMENT_SET_NO": 999, "REV_AT_EPOCH": 97091, "BSTAR": 0.00049942, "MEAN_MOTION_DOT": 9.24e-06, "MEAN_MOTION_DDOT": 0}, "tle": {"line1": "1 30689U 99025AQX 25360.97140830  .00000924  00000+0  49942-3 0  9994", "line2": "2 30689  98.7094 346.7924 0111761  63.2237 359.3607 14.11789332970918"}}, "geometry": {"type": "Point", "coordinates": [101.78113059092328, -80.43533668143739]}}]}